start=new Date('2022-09-23T00:00:00.000Z').valueOf();
sats=[{"COUNTRY_CODE":"US","PERIAPSIS":"546.260","ARG_OF_PERICENTER":"87.7395","BSTAR":"0.00000305190000","GP_ID":"213259347","EPOCH":"2022-09-22T22:05:14.501472","FILE":"3580594","ECCENTRICITY":"0.00014230","NORAD_CAT_ID":"46707","MEAN_MOTION_DOT":"-0.00000236","OBJECT_ID":"2020-073AP","RA_OF_ASC_NODE":"134.9099","APOAPSIS":"548.231","REF_FRAME":"TEME","SITE":"AFETR","TLE_LINE1":"1 46707U 20073AP  22265.92030673 -.00000236  00000-0  30519-5 0  9998","CENTER_NAME":"EARTH","MEAN_ANOMALY":"272.3756","PERIOD":"95.593","DECAY_DATE":null,"EPHEMERIS_TYPE":"0","MEAN_ELEMENT_THEORY":"SGP4","SEMIMAJOR_AXIS":"6925.380","RCS_SIZE":"LARGE","CLASSIFICATION_TYPE":"U","LAUNCH_DATE":"2020-10-18","MEAN_MOTION":"15.06389708","TIME_SYSTEM":"UTC","OBJECT_NAME":"STARLINK-1808","TLE_LINE2":"2 46707  53.0539 134.9099 0001423  87.7395 272.3756 15.06389708106933","MEAN_MOTION_DDOT":"0.0000000000000","ELEMENT_SET_NO":"999","OBJECT_TYPE":"PAYLOAD","INCLINATION":"53.0539","REV_AT_EPOCH":"10693"},{"EPHEMERIS_TYPE":"0","SEMIMAJOR_AXIS":"6925.336","MEAN_ELEMENT_THEORY":"SGP4","LAUNCH_DATE":"2020-10-18","RCS_SIZE":"LARGE","CLASSIFICATION_TYPE":"U","TIME_SYSTEM":"UTC","MEAN_MOTION":"15.06403945","TLE_LINE2":"2 46709  53.0557 172.0743 0001588  81.0548 279.0620 15.06403945106364","MEAN_MOTION_DDOT":"0.0000000000000","OBJECT_NAME":"STARLINK-1810","OBJECT_TYPE":"PAYLOAD","ELEMENT_SET_NO":"999","REV_AT_EPOCH":"10636","INCLINATION":"53.0557","PERIAPSIS":"546.102","COUNTRY_CODE":"US","ARG_OF_PERICENTER":"81.0548","BSTAR":"0.00010264000000","EPOCH":"2022-09-22T11:10:24.339936","GP_ID":"213227046","FILE":"3580347","NORAD_CAT_ID":"46709","ECCENTRICITY":"0.00015880","OBJECT_ID":"2020-073AR","MEAN_MOTION_DOT":"0.00001248","RA_OF_ASC_NODE":"172.0743","REF_FRAME":"TEME","APOAPSIS":"548.301","SITE":"AFETR","TLE_LINE1":"1 46709U 20073AR  22265.46555949  .00001248  00000-0  10264-3 0  9993","DECAY_DATE":null,"PERIOD":"95.592","CENTER_NAME":"EARTH","MEAN_ANOMALY":"279.0620"},{"TIME_SYSTEM":"UTC","MEAN_MOTION":"15.06389778","OBJECT_TYPE":"PAYLOAD","ELEMENT_SET_NO":"999","REV_AT_EPOCH":"10691","INCLINATION":"53.0542","OBJECT_NAME":"STARLINK-1811","TLE_LINE2":"2 46710  53.0542 170.0799 0001539  75.7419 284.3740 15.06389778106912","MEAN_MOTION_DDOT":"0.0000000000000","EPHEMERIS_TYPE":"0","SEMIMAJOR_AXIS":"6925.380","MEAN_ELEMENT_THEORY":"SGP4","LAUNCH_DATE":"2020-10-18","CLASSIFICATION_TYPE":"U","RCS_SIZE":"LARGE","REF_FRAME":"TEME","APOAPSIS":"548.311","MEAN_MOTION_DOT":"0.00001261","OBJECT_ID":"2020-073AS","RA_OF_ASC_NODE":"170.0799","PERIOD":"95.593","DECAY_DATE":null,"MEAN_ANOMALY":"284.3740","CENTER_NAME":"EARTH","SITE":"AFETR","TLE_LINE1":"1 46710U 20073AS  22265.88206373  .00001261  00000-0  10357-3 0  9993","BSTAR":"0.00010357000000","PERIAPSIS":"546.179","COUNTRY_CODE":"US","ARG_OF_PERICENTER":"75.7419","FILE":"3580481","NORAD_CAT_ID":"46710","ECCENTRICITY":"0.00015390","EPOCH":"2022-09-22T21:10:10.306272","GP_ID":"213235210"},{"LAUNCH_DATE":"2020-10-18","RCS_SIZE":"LARGE","CLASSIFICATION_TYPE":"U","EPHEMERIS_TYPE":"0","SEMIMAJOR_AXIS":"6925.389","MEAN_ELEMENT_THEORY":"SGP4","OBJECT_NAME":"STARLINK-1813","TLE_LINE2":"2 46711  53.0529 154.9004 0001384  89.3752 270.7396 15.06386893106659","MEAN_MOTION_DDOT":"0.0000000000000","OBJECT_TYPE":"PAYLOAD","ELEMENT_SET_NO":"999","INCLINATION":"53.0529","REV_AT_EPOCH":"10665","TIME_SYSTEM":"UTC","MEAN_MOTION":"15.06386893","GP_ID":"213259097","EPOCH":"2022-09-22T22:07:54.463296","FILE":"3580594","NORAD_CAT_ID":"46711","ECCENTRICITY":"0.00013840","PERIAPSIS":"546.295","COUNTRY_CODE":"US","ARG_OF_PERICENTER":"89.3752","BSTAR":"-0.00002157700000","SITE":"AFETR","TLE_LINE1":"1 46711U 20073AT  22265.92215814 -.00000603  00000-0 -21577-4 0  9997","PERIOD":"95.593","DECAY_DATE":null,"MEAN_ANOMALY":"270.7396","CENTER_NAME":"EARTH","MEAN_MOTION_DOT":"-0.00000603","OBJECT_ID":"2020-073AT","RA_OF_ASC_NODE":"154.9004","REF_FRAME":"TEME","APOAPSIS":"548.212"},{"SEMIMAJOR_AXIS":"6925.252","MEAN_ELEMENT_THEORY":"SGP4","EPHEMERIS_TYPE":"0","LAUNCH_DATE":"2020-10-18","CLASSIFICATION_TYPE":"U","RCS_SIZE":"LARGE","TIME_SYSTEM":"UTC","MEAN_MOTION":"15.06431501","TLE_LINE2":"2 46712  53.0555 155.1048 0000903  80.5542 279.5549 15.06431501106649","OBJECT_NAME":"STARLINK-1814","MEAN_MOTION_DDOT":"0.0000000000000","INCLINATION":"53.0555","REV_AT_EPOCH":"10664","OBJECT_TYPE":"PAYLOAD","ELEMENT_SET_NO":"999","ARG_OF_PERICENTER":"80.5542","PERIAPSIS":"546.492","COUNTRY_CODE":"US","BSTAR":"-0.00047226000000","EPOCH":"2022-09-22T21:36:03.824928","GP_ID":"213259840","NORAD_CAT_ID":"46712","ECCENTRICITY":"0.00009030","FILE":"3580594","RA_OF_ASC_NODE":"155.1048","MEAN_MOTION_DOT":"-0.00007314","OBJECT_ID":"2020-073AU","REF_FRAME":"TEME","APOAPSIS":"547.742","TLE_LINE1":"1 46712U 20073AU  22265.90004427 -.00007314  00000-0 -47226-3 0  9996","SITE":"AFETR","PERIOD":"95.590","DECAY_DATE":null,"MEAN_ANOMALY":"279.5549","CENTER_NAME":"EARTH"},{"MEAN_MOTION_DOT":"0.00000539","OBJECT_ID":"2020-073AV","RA_OF_ASC_NODE":"154.9873","APOAPSIS":"548.794","REF_FRAME":"TEME","SITE":"AFETR","TLE_LINE1":"1 46713U 20073AV  22265.89908750  .00000539  00000-0  55091-4 0  9997","CENTER_NAME":"EARTH","MEAN_ANOMALY":"338.5156","DECAY_DATE":null,"PERIOD":"95.593","COUNTRY_CODE":"US","PERIAPSIS":"545.678","ARG_OF_PERICENTER":"21.5928","BSTAR":"0.00005509100000","EPOCH":"2022-09-22T21:34:41.160000","GP_ID":"213258087","FILE":"3580594","ECCENTRICITY":"0.00022500","NORAD_CAT_ID":"46713","MEAN_MOTION":"15.06392640","TIME_SYSTEM":"UTC","TLE_LINE2":"2 46713  53.0532 154.9873 0002250  21.5928 338.5156 15.06392640106648","MEAN_MOTION_DDOT":"0.0000000000000","OBJECT_NAME":"STARLINK-1815","ELEMENT_SET_NO":"999","OBJECT_TYPE":"PAYLOAD","INCLINATION":"53.0532","REV_AT_EPOCH":"10664","EPHEMERIS_TYPE":"0","MEAN_ELEMENT_THEORY":"SGP4","SEMIMAJOR_AXIS":"6925.371","RCS_SIZE":"LARGE","CLASSIFICATION_TYPE":"U","LAUNCH_DATE":"2020-10-18"},{"LAUNCH_DATE":"2020-10-18","RCS_SIZE":"LARGE","CLASSIFICATION_TYPE":"U","EPHEMERIS_TYPE":"0","SEMIMAJOR_AXIS":"6925.370","MEAN_ELEMENT_THEORY":"SGP4","TLE_LINE2":"2 46714  53.0542 155.0371 0001620  84.4198 275.6976 15.06393040106648","MEAN_MOTION_DDOT":"0.0000000000000","OBJECT_NAME":"STARLINK-1816","OBJECT_TYPE":"PAYLOAD","ELEMENT_SET_NO":"999","REV_AT_EPOCH":"10664","INCLINATION":"53.0542","TIME_SYSTEM":"UTC","MEAN_MOTION":"15.06393040","GP_ID":"213258838","EPOCH":"2022-09-22T21:20:07.584288","FILE":"3580594","NORAD_CAT_ID":"46714","ECCENTRICITY":"0.00016200","PERIAPSIS":"546.113","COUNTRY_CODE":"US","ARG_OF_PERICENTER":"84.4198","BSTAR":"-0.00000517220000","SITE":"AFETR","TLE_LINE1":"1 46714U 20073AW  22265.88897667 -.00000359  00000-0 -51722-5 0  9991","DECAY_DATE":null,"PERIOD":"95.593","MEAN_ANOMALY":"275.6976","CENTER_NAME":"EARTH","OBJECT_ID":"2020-073AW","MEAN_MOTION_DOT":"-0.00000359","RA_OF_ASC_NODE":"155.0371","REF_FRAME":"TEME","APOAPSIS":"548.357"},{"MEAN_ELEMENT_THEORY":"SGP4","SEMIMAJOR_AXIS":"6925.375","EPHEMERIS_TYPE":"0","RCS_SIZE":"LARGE","CLASSIFICATION_TYPE":"U","LAUNCH_DATE":"2020-10-18","MEAN_MOTION":"15.06391474","TIME_SYSTEM":"UTC","TLE_LINE2":"2 46715  53.0544 155.0685 0001359  76.2505 283.8635 15.06391474106641","OBJECT_NAME":"STARLINK-1817","MEAN_MOTION_DDOT":"0.0000000000000","REV_AT_EPOCH":"10664","INCLINATION":"53.0544","ELEMENT_SET_NO":"999","OBJECT_TYPE":"PAYLOAD","ARG_OF_PERICENTER":"76.2505","COUNTRY_CODE":"US","PERIAPSIS":"546.299","BSTAR":"-0.00000170070000","GP_ID":"213259089","EPOCH":"2022-09-22T21:14:49.082784","ECCENTRICITY":"0.00013590","NORAD_CAT_ID":"46715","FILE":"3580594","RA_OF_ASC_NODE":"155.0685","MEAN_MOTION_DOT":"-0.00000307","OBJECT_ID":"2020-073AX","APOAPSIS":"548.181","REF_FRAME":"TEME","TLE_LINE1":"1 46715U 20073AX  22265.88529031 -.00000307  00000-0 -17007-5 0  9990","SITE":"AFETR","MEAN_ANOMALY":"283.8635","CENTER_NAME":"EARTH","DECAY_DATE":null,"PERIOD":"95.593"},{"TIME_SYSTEM":"UTC","MEAN_MOTION":"15.06395045","OBJECT_TYPE":"PAYLOAD","ELEMENT_SET_NO":"999","REV_AT_EPOCH":"10643","INCLINATION":"53.0553","TLE_LINE2":"2 46716  53.0553 169.9795 0001329  88.3730 271.7411 15.06395045106432","OBJECT_NAME":"STARLINK-1818","MEAN_MOTION_DDOT":"0.0000000000000","EPHEMERIS_TYPE":"0","SEMIMAJOR_AXIS":"6925.364","MEAN_ELEMENT_THEORY":"SGP4","LAUNCH_DATE":"2020-10-18","RCS_SIZE":"LARGE","CLASSIFICATION_TYPE":"U","REF_FRAME":"TEME","APOAPSIS":"548.149","OBJECT_ID":"2020-073AY","MEAN_MOTION_DOT":"-0.00000372","RA_OF_ASC_NODE":"169.9795","DECAY_DATE":null,"PERIOD":"95.592","CENTER_NAME":"EARTH","MEAN_ANOMALY":"271.7411","SITE":"AFETR","TLE_LINE1":"1 46716U 20073AY  22265.90049428 -.00000372  00000-0 -60657-5 0  9992","BSTAR":"-0.00000606570000","PERIAPSIS":"546.308","COUNTRY_CODE":"US","ARG_OF_PERICENTER":"88.3730","FILE":"3580594","NORAD_CAT_ID":"46716","ECCENTRICITY":"0.00013290","EPOCH":"2022-09-22T21:36:42.705792","GP_ID":"213259348"},{"TIME_SYSTEM":"UTC","MEAN_MOTION":"15.06396998","REV_AT_EPOCH":"10664","INCLINATION":"53.0539","OBJECT_TYPE":"PAYLOAD","ELEMENT_SET_NO":"999","TLE_LINE2":"2 46717  53.0539 154.9835 0001463  83.8557 276.2599 15.06396998106640","MEAN_MOTION_DDOT":"0.0000000000000","OBJECT_NAME":"STARLINK-1820","SEMIMAJOR_AXIS":"6925.358","MEAN_ELEMENT_THEORY":"SGP4","EPHEMERIS_TYPE":"0","LAUNCH_DATE":"2020-10-18","RCS_SIZE":"LARGE","CLASSIFICATION_TYPE":"U","REF_FRAME":"TEME","APOAPSIS":"548.236","RA_OF_ASC_NODE":"154.9835","OBJECT_ID":"2020-073AZ","MEAN_MOTION_DOT":"0.00001646","PERIOD":"95.592","DECAY_DATE":null,"CENTER_NAME":"EARTH","MEAN_ANOMALY":"276.2599","TLE_LINE1":"1 46717U 20073AZ  22265.90371437  .00001646  00000-0  12936-3 0  9999","SITE":"AFETR","BSTAR":"0.00012936000000","ARG_OF_PERICENTER":"83.8557","PERIAPSIS":"546.210","COUNTRY_CODE":"US","NORAD_CAT_ID":"46717","ECCENTRICITY":"0.00014630","FILE":"3580594","EPOCH":"2022-09-22T21:41:20.921568","GP_ID":"213258096"}];
